STARLINK-36390          
1 67886U 26035H   26079.55395488  .00281205  00000+0  18178-2 0  9996
2 67886  97.2869  12.4843 0002290  81.5639 278.5886 15.75278062  5557
STARLINK-36368          
1 67887U 26035J   26079.53329078  .00341378  00000+0  17053-2 0  9996
2 67887  97.2893  12.5105 0002989  62.2004 297.9567 15.80927912  5556
STARLINK-36801          
1 67888U 26035K   26079.91668981  .00035494  00000+0  23840-3 0  9999
2 67888  97.2856  12.9148 0001630 115.2383 256.4828 15.75135914  5566
STARLINK-36372          
1 67889U 26035L   26079.91668981 -.00101786  00000+0 -68903-3 0  9999
2 67889  97.2871  12.9063 0001489 111.9673 239.7822 15.75211680  5560
STARLINK-36363          
1 67890U 26035M   26079.55042391  .00214759  00000+0  14011-2 0  9995
2 67890  97.2879  12.4895 0001634  81.6761 278.4690 15.75250962  5559
STARLINK-36816          
1 67891U 26035N   26079.58455829  .00365331  00000+0  18188-2 0  9995
2 67891  97.2891  12.5901 0001582 115.5265 244.6167 15.80942298  5562
STARLINK-36813          
1 67892U 26035P   26079.33586548  .00272326  00000+0  13775-2 0  9990
2 67892  97.2893  12.3140 0001806  94.6100 265.5375 15.80832092  5521
STARLINK-36803          
1 67893U 26035Q   26079.78347589  .00368753  00000+0  18332-2 0  9994
2 67893  97.2889  12.7808 0002160  95.2426 264.9089 15.80964437  5595
STARLINK-36846          
1 67894U 26035R   26079.74276691  .00303401  00000+0  19503-2 0  9996
2 67894  97.2886  12.6844 0003800  83.0005 277.1692 15.75343200  5580
STARLINK-36866          
1 67895U 26035S   26079.35384454  .00195138  00000+0  12795-2 0  9993
2 67895  97.2875  12.2934 0002507 100.4227 259.7321 15.75188628  5528
STARLINK-36877          
1 67896U 26035T   26079.33962093  .00296137  00000+0  14951-2 0  9990
2 67896  97.2894  12.3125 0001260  91.2304 268.9109 15.80812527  5525
STARLINK-36870          
1 67897U 26035U   26079.90758177 -.00763692  00000+0 -47755-2 0  9995
2 67897  97.2889  12.9176 0005052 319.9858  40.1037 15.78712301  5615
